$$SOE
2460721.500000000, A.D. 2025-Feb-15 00:00:00.0000, 1.446935471971019E+08, -3.157801988861723E+08, 2.784089370245533E+07,
2460728.500000000, A.D. 2025-Feb-22 00:00:00.0000, 1.547051210309395E+08, -3.091159704322074E+08, 2.820495760324241E+07,
2460735.500000000, A.D. 2025-Mar-01 00:00:00.0000, 1.645366533400001E+08, -3.020921234786745E+08, 2.853620010104775E+07,
2460742.500000000, A.D. 2025-Mar-08 00:00:00.0000, 1.741739639893771E+08, -2.947117952282649E+08, 2.883375973939481E+07,
2460749.500000000, A.D. 2025-Mar-15 00:00:00.0000, 1.836027412886716E+08, -2.869787188623280E+08, 2.909679816133246E+07,
2460756.500000000, A.D. 2025-Mar-22 00:00:00.0000, 1.928085645797466E+08, -2.788972473164214E+08, 2.932450348764934E+07,
2460763.500000000, A.D. 2025-Mar-29 00:00:00.0000, 2.017769307478028E+08, -2.704723786839085E+08, 2.951609353757028E+07,
2460770.500000000, A.D. 2025-Apr-05 00:00:00.0000, 2.104932850539189E+08, -2.617097798758274E+08, 2.967081911071987E+07,
2460777.500000000, A.D. 2025-Apr-12 00:00:00.0000, 2.189430544170701E+08, -2.526158081818607E+08, 2.978796750561716E+07,
2460784.500000000, A.D. 2025-Apr-19 00:00:00.0000, 2.271116829898727E+08, -2.431975313431638E+08, 2.986686620717423E+07,
2460791.500000000, A.D. 2025-Apr-26 00:00:00.0000, 2.349846703061555E+08, -2.334627460516764E+08, 2.990688668619150E+07,
2460798.500000000, A.D. 2025-May-03 00:00:00.0000, 2.425476120922042E+08, -2.234199945531181E+08, 2.990744828370037E+07,
2460805.500000000, A.D. 2025-May-10 00:00:00.0000, 2.497862437161081E+08, -2.130785790289105E+08, 2.986802215695135E+07,
2460812.500000000, A.D. 2025-May-17 00:00:00.0000, 2.566864862210625E+08, -2.024485734716085E+08, 2.978813525549331E+07,
2460819.500000000, A.D. 2025-May-24 00:00:00.0000, 2.632344949867888E+08, -1.915408327732069E+08, 2.966737427841727E+07,
2460826.500000000, A.D. 2025-May-31 00:00:00.0000, 2.694167112699832E+08, -1.803669983777400E+08, 2.950538956930489E+07,
2460833.500000000, A.D. 2025-Jun-07 00:00:00.0000, 2.752199160169719E+08, -1.689394989650253E+08, 2.930189905292167E+07,
2460840.500000000, A.D. 2025-Jun-14 00:00:00.0000, 2.806312833290150E+08, -1.572715465187034E+08, 2.905669234192511E+07,
2460847.500000000, A.D. 2025-Jun-21 00:00:00.0000, 2.856384344865335E+08, -1.453771307482069E+08, 2.876963459521239E+07,
2460854.500000000, A.D. 2025-Jun-28 00:00:00.0000, 2.902294952993537E+08, -1.332710098152330E+08, 2.844066994182244E+07,
2460861.500000000, A.D. 2025-Jul-05 00:00:00.0000, 2.943931548587633E+08, -1.209686949506895E+08, 2.806982473985349E+07,
2460868.500000000, A.D. 2025-Jul-12 00:00:00.0000, 2.981187240496653E+08, -1.084864295418041E+08, 2.765721066614458E+07,
2460875.500000000, A.D. 2025-Jul-19 00:00:00.0000, 3.013961935275953E+08, -9.584116307919271E+07, 2.720302752582530E+07,
2460882.500000000, A.D. 2025-Jul-26 00:00:00.0000, 3.042162908581447E+08, -8.305051989022884E+07, 2.670756571506909E+07,
2460889.500000000, A.D. 2025-Aug-02 00:00:00.0000, 3.065705363436348E+08, -7.013276257282931E+07, 2.617120829314363E+07,
2460896.500000000, A.D. 2025-Aug-09 00:00:00.0000, 3.084512969917954E+08, -5.710675014915390E+07, 2.559443262191696E+07,
2460903.500000000, A.D. 2025-Aug-16 00:00:00.0000, 3.098518381126758E+08, -4.399189107720489E+07, 2.497781152263151E+07,
2460910.500000000, A.D. 2025-Aug-23 00:00:00.0000, 3.107663722319852E+08, -3.080809124990083E+07, 2.432201388748695E+07,
2460917.500000000, A.D. 2025-Aug-30 00:00:00.0000, 3.111901050444986E+08, -1.757569648284831E+07, 2.362780474058914E+07,
2460924.500000000, A.D. 2025-Sep-06 00:00:00.0000, 3.111192764091621E+08, -4.315428779329509E+06, 2.289604493497256E+07,
2460931.500000000, A.D. 2025-Sep-13 00:00:00.0000, 3.105511941695798E+08, 8.951680767633338E+06, 2.212769041837915E+07,
2460938.500000000, A.D. 2025-Sep-20 00:00:00.0000, 3.094842635514577E+08, 2.220436033485925E+07, 2.132379061845261E+07,
2460945.500000000, A.D. 2025-Sep-27 00:00:00.0000, 3.079180127152634E+08, 3.542116958035435E+07, 2.048548609626145E+07,
2460952.500000000, A.D. 2025-Oct-04 00:00:00.0000, 3.058531120301806E+08, 4.858057566097362E+07, 1.961400569795818E+07,
2460959.500000000, A.D. 2025-Oct-11 00:00:00.0000, 3.032913863484764E+08, 6.166103147258965E+07, 1.871066317091754E+07,
2460966.500000000, A.D. 2025-Oct-18 00:00:00.0000, 3.002358202956347E+08, 7.464105515390016E+07, 1.777685321380607E+07,
2460973.500000000, A.D. 2025-Oct-25 00:00:00.0000, 2.966905565371891E+08, 8.749931014771104E+07, 1.681404697596415E+07,
2460980.500000000, A.D. 2025-Nov-01 00:00:00.0000, 2.926608869799024E+08, 1.002146850950773E+08, 1.582378704008268E+07,
2460987.500000000, A.D. 2025-Nov-08 00:00:00.0000, 2.881532369588305E+08, 1.127663727787394E+08, 1.480768192660626E+07,
2460994.500000000, A.D. 2025-Nov-15 00:00:00.0000, 2.831751426728201E+08, 1.251339473061223E+08, 1.376740015201315E+07,
2461001.500000000, A.D. 2025-Nov-22 00:00:00.0000, 2.777352224792026E+08, 1.372974390137988E+08, 1.270466387695389E+07,
2461008.500000000, A.D. 2025-Nov-29 00:00:00.0000, 2.718431421822926E+08, 1.492374075169084E+08, 1.162124230878950E+07,
2461015.500000000, A.D. 2025-Dec-06 00:00:00.0000, 2.655095724047125E+08, 1.609350121115455E+08, 1.051894511945391E+07,
2461022.500000000, A.D. 2025-Dec-13 00:00:00.0000, 2.587461389395019E+08, 1.723720755672516E+08, 9.399615631336637E+06,
2461029.500000000, A.D. 2025-Dec-20 00:00:00.0000, 2.515653701065694E+08, 1.835311417925386E+08, 8.265123600501858E+06,
2461036.500000000, A.D. 2025-Dec-27 00:00:00.0000, 2.439806406132827E+08, 1.943955295002016E+08, 7.117357973489270E+06,
2461043.500000000, A.D. 2026-Jan-03 00:00:00.0000, 2.360061110829800E+08, 2.049493808799120E+08, 5.958219767681926E+06,
2461050.500000000, A.D. 2026-Jan-10 00:00:00.0000, 2.276566640212626E+08, 2.151777043082142E+08, 4.789615074107021E+06,
2461057.500000000, A.D. 2026-Jan-17 00:00:00.0000, 2.189478371332157E+08, 2.250664108004807E+08, 3.613448214819312E+06,
2461064.500000000, A.D. 2026-Jan-24 00:00:00.0000, 2.098957547570629E+08, 2.346023441111986E+08, 2.431615106235757E+06,
2461071.500000000, A.D. 2026-Jan-31 00:00:00.0000, 2.005170581198821E+08, 2.437733044447482E+08, 1.245996877276823E+06,
2461078.500000000, A.D. 2026-Feb-07 00:00:00.0000, 1.908288351421125E+08, 2.525680657713394E+08, 5.845377795529366E+04,
2461085.500000000, A.D. 2026-Feb-14 00:00:00.0000, 1.808485506822147E+08, 2.609763868629093E+08, -1.129180606217533E+06,
2461092.500000000, A.D. 2026-Feb-21 00:00:00.0000, 1.705939782137305E+08, 2.689890168272769E+08, -2.315104789448127E+06,
2461099.500000000, A.D. 2026-Feb-28 00:00:00.0000, 1.600831324106284E+08, 2.765976965496278E+08, -3.497554251143530E+06,
2461106.500000000, A.D. 2026-Mar-07 00:00:00.0000, 1.493342010797702E+08, 2.837951543965417E+08, -4.674805681557283E+06,
2461113.500000000, A.D. 2026-Mar-14 00:00:00.0000, 1.383654796646247E+08, 2.905750942205152E+08, -5.845181038082242E+06,
2461120.500000000, A.D. 2026-Mar-21 00:00:00.0000, 1.271953105084296E+08, 2.969321789640246E+08, -7.007051333145946E+06,
2461127.500000000, A.D. 2026-Mar-28 00:00:00.0000, 1.158420252045820E+08, 3.028620113053491E+08, -8.158839885055900E+06,
2461134.500000000, A.D. 2026-Apr-04 00:00:00.0000, 1.043238897056598E+08, 3.083611108121601E+08, -9.299025059675395E+06,
2461141.500000000, A.D. 2026-Apr-11 00:00:00.0000, 9.265905268229584E+07, 3.134268876801409E+08, -1.042614256637910E+07,
2461148.500000000, A.D. 2026-Apr-18 00:00:00.0000, 8.086549744700299E+07, 3.180576134840450E+08, -1.153878733548369E+07,
2461155.500000000, A.D. 2026-Apr-25 00:00:00.0000, 6.896099758410676E+07, 3.222523893878149E+08, -1.263561499452274E+07,
2461162.500000000, A.D. 2026-May-02 00:00:00.0000, 5.696307636071923E+07, 3.260111122154455E+08, -1.371534296599458E+07,
2461169.500000000, A.D. 2026-May-09 00:00:00.0000, 4.488897004835507E+07, 3.293344387397907E+08, -1.477675122473170E+07,
2461176.500000000, A.D. 2026-May-16 00:00:00.0000, 3.275559550423221E+07, 3.322237487302687E+08, -1.581868276300961E+07,
2461183.500000000, A.D. 2026-May-23 00:00:00.0000, 2.057952200195977E+07, 3.346811081562061E+08, -1.684004371161471E+07,
2461190.500000000, A.D. 2026-May-30 00:00:00.0000, 8.376945141914725E+06, 3.367092332046102E+08, -1.783980292792250E+07,
2461197.500000000, A.D. 2026-Jun-06 00:00:00.0000, -3.836337601132418E+06, 3.383114521352227E+08, -1.881699131466405E+07,
2461204.500000000, A.D. 2026-Jun-13 00:00:00.0000, -1.604494618521421E+07, 3.394916654508393E+08, -1.977070121450131E+07,
2461211.500000000, A.D. 2026-Jun-20 00:00:00.0000, -2.823393282973209E+07, 3.402543075690574E+08, -2.070008562295823E+07,
2461218.500000000, A.D. 2026-Jun-27 00:00:00.0000, -4.038879423993642E+07, 3.406043098751613E+08, -2.160435711738403E+07,
2461225.500000000, A.D. 2026-Jul-04 00:00:00.0000, -5.249548141707345E+07, 3.405470645710284E+08, -2.248278658923879E+07,
2461232.500000000, A.D. 2026-Jul-11 00:00:00.0000, -6.454040699576239E+07, 3.400883893531094E+08, -2.333470183701329E+07,
2461239.500000000, A.D. 2026-Jul-18 00:00:00.0000, -7.651045021323720E+07, 3.392344930846114E+08, -2.415948604836503E+07,
2461246.500000000, A.D. 2026-Jul-25 00:00:00.0000, -8.839295968289967E+07, 3.379919425791775E+08, -2.495657619430509E+07,
2461253.500000000, A.D. 2026-Aug-01 00:00:00.0000, -1.001757541184169E+08, 3.363676305392708E+08, -2.572546136308627E+07,
2461260.500000000, A.D. 2026-Aug-08 00:00:00.0000, -1.118471209835170E+08, 3.343687446832803E+08, -2.646568107414401E+07,
2461267.500000000, A.D. 2026-Aug-15 00:00:00.0000, -1.233958128372267E+08, 3.320027385625464E+08, -2.717682358953546E+07,
2461274.500000000, A.D. 2026-Aug-22 00:00:00.0000, -1.348110423141858E+08, 3.292773053255451E+08, -2.785852406851850E+07,
2461281.500000000, A.D. 2026-Aug-29 00:00:00.0000, -1.460824781958517E+08, 3.262003530785558E+08, -2.851046248171195E+07,
2461288.500000000, A.D. 2026-Sep-05 00:00:00.0000, -1.572002405932372E+08, 3.227799789737179E+08, -2.913236172533764E+07,
$$EOE